{
  "type": "FeatureCollection",
  "features": [
    {
      "type": "Feature",
      "properties": {
        "norad_id": 29268,
        "name": "ARIRANG-2 (KOMPSAT-2)",
        "group": "resource",
        "lat": -11.92715094835924,
        "lon": -8.600259451994384,
        "alt_km": 688.654505875129,
        "timestamp": "2025-12-10T11:33:53.047743+00:00",
        "meta_object_name": "ARIRANG-2 (KOMPSAT-2)",
        "meta_object_id": "2006-031A",
        "meta_epoch": "2025-12-10T04:44:03.123168",
        "meta_mean_motion": 14.64489381,
        "meta_eccentricity": 0.0013642,
        "meta_inclination": 97.826,
        "meta_ra_of_asc_node": 172.7939,
        "meta_arg_of_pericenter": 317.8971,
        "meta_mean_anomaly": 174.5676,
        "meta_ephemeris_type": 0,
        "meta_classification_type": "U",
        "meta_norad_cat_id": 29268,
        "meta_element_set_no": 999,
        "meta_rev_at_epoch": 3381,
        "meta_bstar": 8.9727e-05,
        "meta_mean_motion_dot": 4.31e-06,
        "meta_mean_motion_ddot": 0,
        "tle_line1": "1 29268U 06031A   25344.19725837  .00000431  00000+0  89727-4 0  9991",
        "tle_line2": "2 29268  97.8260 172.7939 0013642 317.8971 174.5676 14.64489381 33810"
      },
      "geometry": {
        "type": "Point",
        "coordinates": [
          -8.600259451994384,
          -11.92715094835924
        ]
      }
    },
    {
      "type": "Feature",
      "properties": {
        "norad_id": 29709,
        "name": "LAPAN-TUBSAT",
        "group": "resource",
        "lat": -44.9366510819057,
        "lon": -17.212121839072683,
        "alt_km": 623.8666535734346,
        "timestamp": "2025-12-10T11:33:53.047755+00:00",
        "meta_object_name": "LAPAN-TUBSAT",
        "meta_object_id": "2007-001A",
        "meta_epoch": "2025-12-10T03:41:14.218656",
        "meta_mean_motion": 14.85665726,
        "meta_eccentricity": 0.0013723,
        "meta_inclination": 98.1257,
        "meta_ra_of_asc_node": 334.2569,
        "meta_arg_of_pericenter": 81.6564,
        "meta_mean_anomaly": 278.6205,
        "meta_ephemeris_type": 0,
        "meta_classification_type": "U",
        "meta_norad_cat_id": 29709,
        "meta_element_set_no": 999,
        "meta_rev_at_epoch": 2308,
        "meta_bstar": 0.00014906,
        "meta_mean_motion_dot": 1.236e-05,
        "meta_mean_motion_ddot": 0,
        "tle_line1": "1 29709U 07001A   25344.15363679  .00001236  00000+0  14906-3 0  9997",
        "tle_line2": "2 29709  98.1257 334.2569 0013723  81.6564 278.6205 14.85665726 23082"
      },
      "geometry": {
        "type": "Point",
        "coordinates": [
          -17.212121839072683,
          -44.9366510819057
        ]
      }
    },
    {
      "type": "Feature",
      "properties": {
        "norad_id": 31113,
        "name": "HAIYANG-1B",
        "group": "resource",
        "lat": -73.97328958128124,
        "lon": -0.47430130836062206,
        "alt_km": 801.00873088968,
        "timestamp": "2025-12-10T11:33:53.047765+00:00",
        "meta_object_name": "HAIYANG-1B",
        "meta_object_id": "2007-010A",
        "meta_epoch": "2025-12-09T20:49:01.643232",
        "meta_mean_motion": 14.30963669,
        "meta_eccentricity": 0.0014375,
        "meta_inclination": 98.3312,
        "meta_ra_of_asc_node": 328.2642,
        "meta_arg_of_pericenter": 45.9495,
        "meta_mean_anomaly": 314.287,
        "meta_ephemeris_type": 0,
        "meta_classification_type": "U",
        "meta_norad_cat_id": 31113,
        "meta_element_set_no": 999,
        "meta_rev_at_epoch": 97355,
        "meta_bstar": 0.00010677,
        "meta_mean_motion_dot": 2.39e-06,
        "meta_mean_motion_ddot": 0,
        "tle_line1": "1 31113U 07010A   25343.86738013  .00000239  00000+0  10677-3 0  9997",
        "tle_line2": "2 31113  98.3312 328.2642 0014375  45.9495 314.2870 14.30963669973551"
      },
      "geometry": {
        "type": "Point",
        "coordinates": [
          -0.47430130836062206,
          -73.97328958128124
        ]
      }
    },
    {
      "type": "Feature",
      "properties": {
        "norad_id": 31598,
        "name": "COSMO-SKYMED 1",
        "group": "resource",
        "lat": -9.005750308372736,
        "lon": -11.392022081325338,
        "alt_km": 584.4202042299703,
        "timestamp": "2025-12-10T11:33:53.047776+00:00",
        "meta_object_name": "COSMO-SKYMED 1",
        "meta_object_id": "2007-023A",
        "meta_epoch": "2025-12-10T04:18:01.366272",
        "meta_mean_motion": 14.95732222,
        "meta_eccentricity": 0.0001048,
        "meta_inclination": 97.8835,
        "meta_ra_of_asc_node": 169.5618,
        "meta_arg_of_pericenter": 84.7092,
        "meta_mean_anomaly": 275.4248,
        "meta_ephemeris_type": 0,
        "meta_classification_type": "U",
        "meta_norad_cat_id": 31598,
        "meta_element_set_no": 999,
        "meta_rev_at_epoch": 152,
        "meta_bstar": 0.00047692,
        "meta_mean_motion_dot": 5.255e-05,
        "meta_mean_motion_ddot": 0,
        "tle_line1": "1 31598U 07023A   25344.17918248  .00005255  00000+0  47692-3 0  9993",
        "tle_line2": "2 31598  97.8835 169.5618 0001048  84.7092 275.4248 14.95732222  1524"
      },
      "geometry": {
        "type": "Point",
        "coordinates": [
          -11.392022081325338,
          -9.005750308372736
        ]
      }
    },
    {
      "type": "Feature",
      "properties": {
        "norad_id": 31698,
        "name": "TERRASAR-X",
        "group": "resource",
        "lat": 14.713788631525237,
        "lon": -12.072285309888123,
        "alt_km": 508.88682106930537,
        "timestamp": "2025-12-10T11:33:53.047786+00:00",
        "meta_object_name": "TERRASAR-X",
        "meta_object_id": "2007-026A",
        "meta_epoch": "2025-12-09T11:47:13.204320",
        "meta_mean_motion": 15.19146544,
        "meta_eccentricity": 0.0001961,
        "meta_inclination": 97.4451,
        "meta_ra_of_asc_node": 348.9193,
        "meta_arg_of_pericenter": 86.8081,
        "meta_mean_anomaly": 273.3378,
        "meta_ephemeris_type": 0,
        "meta_classification_type": "U",
        "meta_norad_cat_id": 31698,
        "meta_element_set_no": 999,
        "meta_rev_at_epoch": 2442,
        "meta_bstar": 0.00012751,
        "meta_mean_motion_dot": 2.611e-05,
        "meta_mean_motion_ddot": 0,
        "tle_line1": "1 31698U 07026A   25343.49112505  .00002611  00000+0  12751-3 0  9994",
        "tle_line2": "2 31698  97.4451 348.9193 0001961  86.8081 273.3378 15.19146544 24429"
      },
      "geometry": {
        "type": "Point",
        "coordinates": [
          -12.072285309888123,
          14.713788631525237
        ]
      }
    },
    {
      "type": "Feature",
      "properties": {
        "norad_id": 32060,
        "name": "WORLDVIEW-1 (WV-1)",
        "group": "resource",
        "lat": -28.270392119069175,
        "lon": 105.99350600856329,
        "alt_km": 498.1494960115342,
        "timestamp": "2025-12-10T11:33:53.047796+00:00",
        "meta_object_name": "WORLDVIEW-1 (WV-1)",
        "meta_object_id": "2007-041A",
        "meta_epoch": "2025-12-09T18:21:45.684576",
        "meta_mean_motion": 15.24610182,
        "meta_eccentricity": 7.28e-05,
        "meta_inclination": 97.3837,
        "meta_ra_of_asc_node": 101.2881,
        "meta_arg_of_pericenter": 104.1233,
        "meta_mean_anomaly": 256.0086,
        "meta_ephemeris_type": 0,
        "meta_classification_type": "U",
        "meta_norad_cat_id": 32060,
        "meta_element_set_no": 999,
        "meta_rev_at_epoch": 1402,
        "meta_bstar": 0.0005059,
        "meta_mean_motion_dot": 0.00012417,
        "meta_mean_motion_ddot": 0,
        "tle_line1": "1 32060U 07041A   25343.76511209  .00012417  00000+0  50590-3 0  9997",
        "tle_line2": "2 32060  97.3837 101.2881 0000728 104.1233 256.0086 15.24610182 14026"
      },
      "geometry": {
        "type": "Point",
        "coordinates": [
          105.99350600856329,
          -28.270392119069175
        ]
      }
    },
    {
      "type": "Feature",
      "properties": {
        "norad_id": 32289,
        "name": "YAOGAN-3",
        "group": "resource",
        "lat": 81.31245325347804,
        "lon": -53.2107407913152,
        "alt_km": 590.1351009441069,
        "timestamp": "2025-12-10T11:33:53.047806+00:00",
        "meta_object_name": "YAOGAN-3",
        "meta_object_id": "2007-055A",
        "meta_epoch": "2025-12-10T04:43:53.429952",
        "meta_mean_motion": 14.89834297,
        "meta_eccentricity": 0.0001295,
        "meta_inclination": 97.8366,
        "meta_ra_of_asc_node": 10.8448,
        "meta_arg_of_pericenter": 73.316,
        "meta_mean_anomaly": 286.82,
        "meta_ephemeris_type": 0,
        "meta_classification_type": "U",
        "meta_norad_cat_id": 32289,
        "meta_element_set_no": 999,
        "meta_rev_at_epoch": 97771,
        "meta_bstar": 0.00010534,
        "meta_mean_motion_dot": 9.56e-06,
        "meta_mean_motion_ddot": 0,
        "tle_line1": "1 32289U 07055A   25344.19714618  .00000956  00000+0  10534-3 0  9991",
        "tle_line2": "2 32289  97.8366  10.8448 0001295  73.3160 286.8200 14.89834297977719"
      },
      "geometry": {
        "type": "Point",
        "coordinates": [
          -53.2107407913152,
          81.31245325347804
        ]
      }
    }
  ]
}